{
  "type": "FeatureCollection",
  "features": [
    {
      "type": "Feature",
      "properties": {
        "norad_id": 37836,
        "name": "EUTELSAT 16A",
        "group": "eutelsat",
        "lat": -0.07019616447962045,
        "lon": -118.9326561930223,
        "alt_km": 35762.826277339016,
        "timestamp": "2025-12-09T09:46:47.318432+00:00",
        "meta_object_name": "EUTELSAT 16A",
        "meta_object_id": "2011-057A",
        "meta_epoch": "2025-12-09T03:22:37.680096",
        "meta_mean_motion": 1.00270893,
        "meta_eccentricity": 0.0005944,
        "meta_inclination": 0.0582,
        "meta_ra_of_asc_node": 0.9849,
        "meta_arg_of_pericenter": 261.1779,
        "meta_mean_anomaly": 242.6303,
        "meta_ephemeris_type": 0,
        "meta_classification_type": "U",
        "meta_norad_cat_id": 37836,
        "meta_element_set_no": 999,
        "meta_rev_at_epoch": 542,
        "meta_bstar": 0,
        "meta_mean_motion_dot": 1.06e-06,
        "meta_mean_motion_ddot": 0,
        "tle_line1": "1 37836U 11057A   25343.14071389  .00000106  00000+0  00000+0 0  9996",
        "tle_line2": "2 37836   0.0582   0.9849 0005944 261.1779 242.6303  1.00270893  5420"
      },
      "geometry": {
        "type": "Point",
        "coordinates": [
          -118.9326561930223,
          -0.07019616447962045
        ]
      }
    },
    {
      "type": "Feature",
      "properties": {
        "norad_id": 38992,
        "name": "EUTELSAT 21B",
        "group": "eutelsat",
        "lat": -0.08208011964551648,
        "lon": -113.32489775430079,
        "alt_km": 35773.35445160043,
        "timestamp": "2025-12-09T09:46:47.318444+00:00",
        "meta_object_name": "EUTELSAT 21B",
        "meta_object_id": "2012-062B",
        "meta_epoch": "2025-12-08T22:15:59.208768",
        "meta_mean_motion": 1.00270798,
        "meta_eccentricity": 0.00032566,
        "meta_inclination": 0.0661,
        "meta_ra_of_asc_node": 357.6561,
        "meta_arg_of_pericenter": 269.0326,
        "meta_mean_anomaly": 166.831,
        "meta_ephemeris_type": 0,
        "meta_classification_type": "U",
        "meta_norad_cat_id": 38992,
        "meta_element_set_no": 999,
        "meta_rev_at_epoch": 4792,
        "meta_bstar": 0,
        "meta_mean_motion_dot": 1.32e-06,
        "meta_mean_motion_ddot": 0,
        "tle_line1": "1 38992U 12062B   25342.92776862  .00000132  00000+0  00000+0 0  9999",
        "tle_line2": "2 38992   0.0661 357.6561 0003256 269.0326 166.8310  1.00270798 47924"
      },
      "geometry": {
        "type": "Point",
        "coordinates": [
          -113.32489775430079,
          -0.08208011964551648
        ]
      }
    },
    {
      "type": "Feature",
      "properties": {
        "norad_id": 39020,
        "name": "EUTELSAT 70B",
        "group": "eutelsat",
        "lat": -0.05832243366512699,
        "lon": -64.3523415875633,
        "alt_km": 35775.675744744505,
        "timestamp": "2025-12-09T09:46:47.318457+00:00",
        "meta_object_name": "EUTELSAT 70B",
        "meta_object_id": "2012-069A",
        "meta_epoch": "2025-12-09T01:55:23.193120",
        "meta_mean_motion": 1.00270049,
        "meta_eccentricity": 0.0004309,
        "meta_inclination": 0.065,
        "meta_ra_of_asc_node": 337.7708,
        "meta_arg_of_pericenter": 264.3992,
        "meta_mean_anomaly": 295.2704,
        "meta_ephemeris_type": 0,
        "meta_classification_type": "U",
        "meta_norad_cat_id": 39020,
        "meta_element_set_no": 999,
        "meta_rev_at_epoch": 4760,
        "meta_bstar": 0,
        "meta_mean_motion_dot": -4.1e-07,
        "meta_mean_motion_ddot": 0,
        "tle_line1": "1 39020U 12069A   25343.08012955 -.00000041  00000+0  00000+0 0  9993",
        "tle_line2": "2 39020   0.0650 337.7708 0004309 264.3992 295.2704  1.00270049 47602"
      },
      "geometry": {
        "type": "Point",
        "coordinates": [
          -64.3523415875633,
          -0.05832243366512699
        ]
      }
    },
    {
      "type": "Feature",
      "properties": {
        "norad_id": 39122,
        "name": "EUTELSAT 117 WEST A",
        "group": "eutelsat",
        "lat": 0.028184116721754898,
        "lon": 108.27280405099083,
        "alt_km": 35797.90459789735,
        "timestamp": "2025-12-09T09:46:47.318470+00:00",
        "meta_object_name": "EUTELSAT 117 WEST A",
        "meta_object_id": "2013-012A",
        "meta_epoch": "2025-12-09T03:18:42.454368",
        "meta_mean_motion": 1.00270625,
        "meta_eccentricity": 0.0003083,
        "meta_inclination": 0.013,
        "meta_ra_of_asc_node": 346.505,
        "meta_arg_of_pericenter": 273.6015,
        "meta_mean_anomaly": 110.9018,
        "meta_ephemeris_type": 0,
        "meta_classification_type": "U",
        "meta_norad_cat_id": 39122,
        "meta_element_set_no": 999,
        "meta_rev_at_epoch": 4652,
        "meta_bstar": 0,
        "meta_mean_motion_dot": -1.1e-07,
        "meta_mean_motion_ddot": 0,
        "tle_line1": "1 39122U 13012A   25343.13799137 -.00000011  00000+0  00000+0 0  9992",
        "tle_line2": "2 39122   0.0130 346.5050 0003083 273.6015 110.9018  1.00270625 46524"
      },
      "geometry": {
        "type": "Point",
        "coordinates": [
          108.27280405099083,
          0.028184116721754898
        ]
      }
    },
    {
      "type": "Feature",
      "properties": {
        "norad_id": 39163,
        "name": "EUTELSAT 7B",
        "group": "eutelsat",
        "lat": -0.0617906129323506,
        "lon": -127.9724935257112,
        "alt_km": 35783.450540332706,
        "timestamp": "2025-12-09T09:46:47.318488+00:00",
        "meta_object_name": "EUTELSAT 7B",
        "meta_object_id": "2013-022A",
        "meta_epoch": "2025-12-08T22:21:38.733120",
        "meta_mean_motion": 1.0027143,
        "meta_eccentricity": 0.00045601,
        "meta_inclination": 0.0704,
        "meta_ra_of_asc_node": 13.6916,
        "meta_arg_of_pericenter": 300.4853,
        "meta_mean_anomaly": 106.1514,
        "meta_ephemeris_type": 0,
        "meta_classification_type": "U",
        "meta_norad_cat_id": 39163,
        "meta_element_set_no": 999,
        "meta_rev_at_epoch": 4604,
        "meta_bstar": 0,
        "meta_mean_motion_dot": 5e-07,
        "meta_mean_motion_ddot": 0,
        "tle_line1": "1 39163U 13022A   25342.93169830  .00000050  00000+0  00000+0 0  9998",
        "tle_line2": "2 39163   0.0704  13.6916 0004560 300.4853 106.1514  1.00271430 46049"
      },
      "geometry": {
        "type": "Point",
        "coordinates": [
          -127.9724935257112,
          -0.0617906129323506
        ]
      }
    },
    {
      "type": "Feature",
      "properties": {
        "norad_id": 39612,
        "name": "EXPRESS-AT1",
        "group": "eutelsat",
        "lat": -0.01574288229618083,
        "lon": -78.89029395113164,
        "alt_km": 35777.675111579745,
        "timestamp": "2025-12-09T09:46:47.318516+00:00",
        "meta_object_name": "EXPRESS-AT1",
        "meta_object_id": "2014-010A",
        "meta_epoch": "2025-12-09T03:33:59.092704",
        "meta_mean_motion": 1.00291062,
        "meta_eccentricity": 8.66e-05,
        "meta_inclination": 0.015,
        "meta_ra_of_asc_node": 294.6508,
        "meta_arg_of_pericenter": 21.7051,
        "meta_mean_anomaly": 231.2889,
        "meta_ephemeris_type": 0,
        "meta_classification_type": "U",
        "meta_norad_cat_id": 39612,
        "meta_element_set_no": 999,
        "meta_rev_at_epoch": 4291,
        "meta_bstar": 0,
        "meta_mean_motion_dot": 7.8e-07,
        "meta_mean_motion_ddot": 0,
        "tle_line1": "1 39612U 14010A   25343.14860061  .00000078  00000+0  00000+0 0  9993",
        "tle_line2": "2 39612   0.0150 294.6508 0000866  21.7051 231.2889  1.00291062 42919"
      },
      "geometry": {
        "type": "Point",
        "coordinates": [
          -78.89029395113164,
          -0.01574288229618083
        ]
      }
    },
    {
      "type": "Feature",
      "properties": {
        "norad_id": 39613,
        "name": "EXPRESS-AT2",
        "group": "eutelsat",
        "lat": 0.02425803269534999,
        "lon": 4.975087536813765,
        "alt_km": 35784.868241832475,
        "timestamp": "2025-12-09T09:46:47.318534+00:00",
        "meta_object_name": "EXPRESS-AT2",
        "meta_object_id": "2014-010B",
        "meta_epoch": "2025-12-09T04:20:38.774112",
        "meta_mean_motion": 1.00272476,
        "meta_eccentricity": 0.000156,
        "meta_inclination": 0.0184,
        "meta_ra_of_asc_node": 311.8251,
        "meta_arg_of_pericenter": 332.4367,
        "meta_mean_anomaly": 358.9398,
        "meta_ephemeris_type": 0,
        "meta_classification_type": "U",
        "meta_norad_cat_id": 39613,
        "meta_element_set_no": 999,
        "meta_rev_at_epoch": 4259,
        "meta_bstar": 0,
        "meta_mean_motion_dot": -2.79e-06,
        "meta_mean_motion_ddot": 0,
        "tle_line1": "1 39613U 14010B   25343.18100433 -.00000279  00000+0  00000+0 0  9992",
        "tle_line2": "2 39613   0.0184 311.8251 0001560 332.4367 358.9398  1.00272476 42592"
      },
      "geometry": {
        "type": "Point",
        "coordinates": [
          4.975087536813765,
          0.02425803269534999
        ]
      }
    }
  ]
}